{
  "type": "FeatureCollection",
  "features": [
    {
      "type": "Feature",
      "properties": {
        "norad_id": 30199,
        "name": "FENGYUN 1C DEB",
        "group": "fengyun-1c-debris",
        "lat": 22.59531735093242,
        "lon": 17.664412652292604,
        "alt_km": 779.1591730372584,
        "timestamp": "2025-12-23T16:57:12.626804+00:00",
        "meta_object_name": "FENGYUN 1C DEB",
        "meta_object_id": "1999-025VG",
        "meta_epoch": "2025-12-23T00:17:33.650592",
        "meta_mean_motion": 14.38570793,
        "meta_eccentricity": 0.00777207,
        "meta_inclination": 98.3835,
        "meta_ra_of_asc_node": 20.5049,
        "meta_arg_of_pericenter": 277.5081,
        "meta_mean_anomaly": 111.5084,
        "meta_ephemeris_type": 0,
        "meta_classification_type": "U",
        "meta_norad_cat_id": 30199,
        "meta_element_set_no": 999,
        "meta_rev_at_epoch": 98558,
        "meta_bstar": 0.00095045731,
        "meta_mean_motion_dot": 2.968e-05,
        "meta_mean_motion_ddot": 0,
        "tle_line1": "1 30199U 99025VG  25357.01219503  .00002968  00000+0  95046-3 0  9991",
        "tle_line2": "2 30199  98.3835  20.5049 0077720 277.5081 111.5084 14.38570793985585"
      },
      "geometry": {
        "type": "Point",
        "coordinates": [
          17.664412652292604,
          22.59531735093242
        ]
      }
    },
    {
      "type": "Feature",
      "properties": {
        "norad_id": 30200,
        "name": "FENGYUN 1C DEB",
        "group": "fengyun-1c-debris",
        "lat": 72.22923211268898,
        "lon": 162.78099730355135,
        "alt_km": 705.1464757823769,
        "timestamp": "2025-12-23T16:57:12.626813+00:00",
        "meta_object_name": "FENGYUN 1C DEB",
        "meta_object_id": "1999-025VH",
        "meta_epoch": "2025-12-23T01:25:00.026112",
        "meta_mean_motion": 14.2228378,
        "meta_eccentricity": 0.01475374,
        "meta_inclination": 99.1125,
        "meta_ra_of_asc_node": 192.1634,
        "meta_arg_of_pericenter": 69.9498,
        "meta_mean_anomaly": 291.7491,
        "meta_ephemeris_type": 0,
        "meta_classification_type": "U",
        "meta_norad_cat_id": 30200,
        "meta_element_set_no": 999,
        "meta_rev_at_epoch": 98129,
        "meta_bstar": 0.00013399787,
        "meta_mean_motion_dot": 2.86e-06,
        "meta_mean_motion_ddot": 0,
        "tle_line1": "1 30200U 99025VH  25357.05902808  .00000286  00000+0  13400-3 0  9990",
        "tle_line2": "2 30200  99.1125 192.1634 0147537  69.9498 291.7491 14.22283780981291"
      },
      "geometry": {
        "type": "Point",
        "coordinates": [
          162.78099730355135,
          72.22923211268898
        ]
      }
    },
    {
      "type": "Feature",
      "properties": {
        "norad_id": 30201,
        "name": "FENGYUN 1C DEB",
        "group": "fengyun-1c-debris",
        "lat": 11.877126415283954,
        "lon": 130.6590165245761,
        "alt_km": 816.930886406888,
        "timestamp": "2025-12-23T16:57:12.626824+00:00",
        "meta_object_name": "FENGYUN 1C DEB",
        "meta_object_id": "1999-025VJ",
        "meta_epoch": "2025-12-22T10:31:16.012992",
        "meta_mean_motion": 14.22960339,
        "meta_eccentricity": 0.00287317,
        "meta_inclination": 99.4015,
        "meta_ra_of_asc_node": 131.3033,
        "meta_arg_of_pericenter": 284.599,
        "meta_mean_anomaly": 75.2,
        "meta_ephemeris_type": 0,
        "meta_classification_type": "U",
        "meta_norad_cat_id": 30201,
        "meta_element_set_no": 999,
        "meta_rev_at_epoch": 97965,
        "meta_bstar": 0.00041197713,
        "meta_mean_motion_dot": 8.81e-06,
        "meta_mean_motion_ddot": 0,
        "tle_line1": "1 30201U 99025VJ  25356.43837978  .00000881  00000+0  41198-3 0  9993",
        "tle_line2": "2 30201  99.4015 131.3033 0028731 284.5990  75.2000 14.22960339979657"
      },
      "geometry": {
        "type": "Point",
        "coordinates": [
          130.6590165245761,
          11.877126415283954
        ]
      }
    },
    {
      "type": "Feature",
      "properties": {
        "norad_id": 30202,
        "name": "FENGYUN 1C DEB",
        "group": "fengyun-1c-debris",
        "lat": 71.79349362143928,
        "lon": 67.78186716007251,
        "alt_km": 692.675346649552,
        "timestamp": "2025-12-23T16:57:12.626834+00:00",
        "meta_object_name": "FENGYUN 1C DEB",
        "meta_object_id": "1999-025VK",
        "meta_epoch": "2025-12-23T05:02:38.977440",
        "meta_mean_motion": 14.52531646,
        "meta_eccentricity": 0.00381711,
        "meta_inclination": 98.6402,
        "meta_ra_of_asc_node": 94.8065,
        "meta_arg_of_pericenter": 26.221,
        "meta_mean_anomaly": 334.0906,
        "meta_ephemeris_type": 0,
        "meta_classification_type": "U",
        "meta_norad_cat_id": 30202,
        "meta_element_set_no": 999,
        "meta_rev_at_epoch": 98441,
        "meta_bstar": 0.0021531499,
        "meta_mean_motion_dot": 8.842e-05,
        "meta_mean_motion_ddot": 0,
        "tle_line1": "1 30202U 99025VK  25357.21017335  .00008842  00000+0  21531-2 0  9991",
        "tle_line2": "2 30202  98.6402  94.8065 0038171  26.2210 334.0906 14.52531646984411"
      },
      "geometry": {
        "type": "Point",
        "coordinates": [
          67.78186716007251,
          71.79349362143928
        ]
      }
    },
    {
      "type": "Feature",
      "properties": {
        "norad_id": 30205,
        "name": "FENGYUN 1C DEB",
        "group": "fengyun-1c-debris",
        "lat": 71.38393994429786,
        "lon": -43.29768993055946,
        "alt_km": 864.0541361191626,
        "timestamp": "2025-12-23T16:57:12.626844+00:00",
        "meta_object_name": "FENGYUN 1C DEB",
        "meta_object_id": "1999-025VN",
        "meta_epoch": "2025-12-22T20:18:38.060640",
        "meta_mean_motion": 13.88049322,
        "meta_eccentricity": 0.01213306,
        "meta_inclination": 98.9969,
        "meta_ra_of_asc_node": 107.8181,
        "meta_arg_of_pericenter": 152.5368,
        "meta_mean_anomaly": 339.0706,
        "meta_ephemeris_type": 0,
        "meta_classification_type": "U",
        "meta_norad_cat_id": 30205,
        "meta_element_set_no": 999,
        "meta_rev_at_epoch": 95778,
        "meta_bstar": 0.00026853177,
        "meta_mean_motion_dot": 2.98e-06,
        "meta_mean_motion_ddot": 0,
        "tle_line1": "1 30205U 99025VN  25356.84627385  .00000298  00000+0  26853-3 0  9994",
        "tle_line2": "2 30205  98.9969 107.8181 0121330 152.5368 339.0706 13.88049322957782"
      },
      "geometry": {
        "type": "Point",
        "coordinates": [
          -43.29768993055946,
          71.38393994429786
        ]
      }
    },
    {
      "type": "Feature",
      "properties": {
        "norad_id": 30206,
        "name": "FENGYUN 1C DEB",
        "group": "fengyun-1c-debris",
        "lat": -73.93118042898486,
        "lon": 26.875335906284338,
        "alt_km": 714.3749658038241,
        "timestamp": "2025-12-23T16:57:12.626854+00:00",
        "meta_object_name": "FENGYUN 1C DEB",
        "meta_object_id": "1999-025VP",
        "meta_epoch": "2025-12-22T23:04:11.717472",
        "meta_mean_motion": 14.49195344,
        "meta_eccentricity": 0.01452768,
        "meta_inclination": 98.2317,
        "meta_ra_of_asc_node": 355.9782,
        "meta_arg_of_pericenter": 5.1272,
        "meta_mean_anomaly": 355.1369,
        "meta_ephemeris_type": 0,
        "meta_classification_type": "U",
        "meta_norad_cat_id": 30206,
        "meta_element_set_no": 999,
        "meta_rev_at_epoch": 99549,
        "meta_bstar": 0.00047931902,
        "meta_mean_motion_dot": 2.038e-05,
        "meta_mean_motion_ddot": 0,
        "tle_line1": "1 30206U 99025VP  25356.96124673  .00002038  00000+0  47932-3 0  9995",
        "tle_line2": "2 30206  98.2317 355.9782 0145276   5.1272 355.1369 14.49195344995496"
      },
      "geometry": {
        "type": "Point",
        "coordinates": [
          26.875335906284338,
          -73.93118042898486
        ]
      }
    },
    {
      "type": "Feature",
      "properties": {
        "norad_id": 30207,
        "name": "FENGYUN 1C DEB",
        "group": "fengyun-1c-debris",
        "lat": 10.549235749923778,
        "lon": 105.77416422062475,
        "alt_km": 1022.9284572276592,
        "timestamp": "2025-12-23T16:57:12.626864+00:00",
        "meta_object_name": "FENGYUN 1C DEB",
        "meta_object_id": "1999-025VQ",
        "meta_epoch": "2025-12-22T06:13:22.188576",
        "meta_mean_motion": 13.7914224,
        "meta_eccentricity": 0.02607588,
        "meta_inclination": 98.5741,
        "meta_ra_of_asc_node": 106.0726,
        "meta_arg_of_pericenter": 122.6817,
        "meta_mean_anomaly": 270.0892,
        "meta_ephemeris_type": 0,
        "meta_classification_type": "U",
        "meta_norad_cat_id": 30207,
        "meta_element_set_no": 999,
        "meta_rev_at_epoch": 95194,
        "meta_bstar": 0.00019265177,
        "meta_mean_motion_dot": 2.18e-06,
        "meta_mean_motion_ddot": 0,
        "tle_line1": "1 30207U 99025VQ  25356.25928459  .00000218  00000+0  19265-3 0  9998",
        "tle_line2": "2 30207  98.5741 106.0726 0260758 122.6817 270.0892 13.79142240951944"
      },
      "geometry": {
        "type": "Point",
        "coordinates": [
          105.77416422062475,
          10.549235749923778
        ]
      }
    }
  ]
}